UNKNOWN                 
1 87300U 70025    25208.13005951  .00001706  00000+0  12166-2 0  9994
2 87300 100.0711 176.8674 0027993 307.6374  52.2246 13.98824102593735
UNKNOWN                 
1 87304U          25210.32143108  .00001312  00000+0  20074-3 0  9996
2 87304  74.0161 227.8418 0019356 235.6235 124.3109 14.74745192626362
UNKNOWN                 
1 87320U 71015    25211.29028668  .00002631  00000+0  16732-2 0  9998
2 87320  66.5947  47.1550 0419067 142.3622 220.7573 13.69404483575193
UNKNOWN                 
1 87334U          25211.62691035  .00014698  00000+0  97621-2 0  9992
2 87334  90.0031 271.6117 0057093 306.1125  53.4776 14.00424439367703
UNKNOWN                 
1 87335U          25211.61350577  .00012599  00000+0  82195-2 0  9993
2 87335  89.9871 268.1382 0074682 280.0800  79.1959 14.00868496368020
UNKNOWN                 
1 87405U 81053    25211.31240510  .00002852  00000+0  20571-2 0  9991
2 87405  82.7529 166.8556 0060260   2.0354 358.1046 13.95541396592261
UNKNOWN                 
1 87426U          25211.38590690  .00003197  00000+0  12985-2 0  9994
2 87426  65.7858 340.9475 0059923 355.5403  38.9573 14.27982228603259
UNKNOWN                 
1 87448U 70025    25210.78873372  .00001306  00000+0  10843-2 0  9997
2 87448 100.4624  40.5330 0062976 194.5454 165.3889 13.90081647590347
UNKNOWN                 
1 87456U 76126    25206.13338325  .00009495  00000+0  15301-2 0  9993
2 87456  65.7822 103.2535 0510600  78.3500 287.4405 14.10798354591643
UNKNOWN                 
1 87517U 76126    25211.24758626  .00005843  00000+0  17160-2 0  9997
2 87517  65.8223 202.4836 0671379  11.2886   1.3493 13.59755032574488
UNKNOWN                 
1 87541U 70025    25204.47739794  .00000180  00000+0  43413-3 0  9998
2 87541  99.7224  65.4274 0058324 246.7338 232.0060 13.35509369563048
UNKNOWN                 
1 87553U 76126    25210.05940775  .00001334  00000+0  42500-3 0  9991
2 87553  65.6711 326.3588 0707094 287.6412  64.8668 13.52353649572764
UNKNOWN                 
1 87557U 73086    25210.29273190  .00003699  00000+0  83759-2 0  9999
2 87557 101.7193  48.3534 0069062 334.3929  25.3771 13.26342907546938
UNKNOWN                 
1 87561U 76077    25211.43592809 -.00000069  00000+0 -19858-3 0  9995
2 87561 102.0305 272.6166 0175452 180.7884 191.5710 12.32157894525772
UNKNOWN                 
1 87565U 99025    25206.73169701  .00001016  00000+0  57585-3 0  9995
2 87565  99.9316 184.8131 0172560 189.5370 170.2504 14.05447114596763
UNKNOWN                 
1 87569U 99025    25210.22442773 -.00000041  00000+0  35003-4 0  9991
2 87569 101.9853  22.3507 0055779 160.9464  20.7487 12.68535436541153
UNKNOWN                 
1 87587U 93036    25204.72016074  .00000208  00000+0  74479-4 0  9990
2 87587  74.0248   5.4899 0019529  75.6160 284.7160 14.39957790613369
UNKNOWN                 
1 87590U 99025    25211.05791848  .00000591  00000+0  35824-3 0  9996
2 87590  98.8068 251.1490 0025518 308.8819  82.1779 14.10098688135121
UNKNOWN                 
1 87616U 76067    25209.02432240  .00000692  00000+0  24640-2 0  9993
2 87616  66.0335  59.3883 0639565 197.9812 318.6128 12.46693102519064
UNKNOWN                 
1 87624U 99025    25211.55495554  .00005593  00000+0  91620-3 0  9997
2 87624  98.6670 140.8085 0100893 310.9381  48.3120 14.67852508560439
UNKNOWN                 
1 87650U          25206.66046336  .00008824  00000+0  19501-2 0  9994
2 87650 100.2675 349.0001 0033671 330.5493  29.3801 14.57228637 59331
UNKNOWN                 
1 87664U 75052    25196.66687506 -.00000153  00000+0 -30204-3 0  9999
2 87664  99.7747  94.5675 0211173 309.0530  76.8803 13.07429962521785
UNKNOWN                 
1 87672U 93016    25211.52660635  .00001898  00000+0  78621-3 0  9995
2 87672  70.8614 298.5774 0056291 120.6397 240.0298 14.27027130605161
UNKNOWN                 
1 87681U          25208.61223073  .00000655  00000+0  74315-3 0  9999
2 87681  66.7365  65.7675 0164747 252.8335 105.4639 13.70762260582904
UNKNOWN                 
1 87690U 76126    25211.64148873  .00008146  00000+0  12645-2 0  9992
2 87690  65.7964 344.6438 0584465 117.3671 248.8126 13.98512802588471
UNKNOWN                 
1 87706U          25211.46636738  .00002475  00000+0  45671-3 0  9995
2 87706  98.6742  27.9850 0107278 327.0640  87.0852 14.62842425558730
UNKNOWN                 
1 87725U 81053    25210.44913680  .00026608  00000+0  32384-2 0  9994
2 87725  82.8712  18.6593 0014564 155.2159 204.9759 14.83236665613649
UNKNOWN                 
1 87730U          25209.58907954  .00000075  00000+0  63342-4 0  9993
2 87730  82.9477 335.5906 0030489  28.6869 331.5955 13.74478346566496
UNKNOWN                 
1 87737U 99025    25210.36554540  .00000017  00000+0  62729-4 0  9996
2 87737  99.3967  85.0041 0133012 184.7779 175.2108 13.72312495585153
UNKNOWN                 
1 87764U 76126    25211.32274051  .00003677  00000+0  64782-3 0  9991
2 87764  65.6728 174.2864 0375925 147.7552   6.4610 14.31716815599717
UNKNOWN                 
1 87771U 75052    25209.29825976  .00000042  00000+0  21660-3 0  9998
2 87771 100.7544  42.4177 0119154 314.1518  44.9847 13.19472390516964
UNKNOWN                 
1 87782U 73086    25211.31696871  .00001862  00000+0  63782-2 0  9992
2 87782 102.3263  65.3953 0042412 112.8386 247.7197 12.99561297550394
UNKNOWN                 
1 87843U 70025    25203.62731528  .00001353  00000+0  32098-2 0  9995
2 87843  99.6714 329.8718 0232638 340.7970  18.4486 13.15811172545331
UNKNOWN                 
1 87845U          25208.79970654  .00000827  00000+0  16187-2 0  9997
2 87845  98.8327 193.5441 0575408 211.3000 145.2627 12.88480910547446
UNKNOWN                 
1 87878U          25202.03600338  .00001946  00000+0  63755-3 0  9990
2 87878  99.1492 311.6609 0035010 332.4792  27.4539 14.39338530590473
UNKNOWN                 
1 87884U 99025    25208.01214512  .00000531  00000+0  31359-3 0  9995
2 87884  98.7275 316.7916 0155351  98.6853 263.1948 14.05860066598873
UNKNOWN                 
1 87898U 99025    25196.57001283  .00039271  00000+0  35526-2 0  9998
2 87898  98.8667 139.4819 0042836 252.4799 107.1735 14.94588398608100
UNKNOWN                 
1 87934U          25207.29121939  .00000079  00000+0  68466-4 0  9992
2 87934  82.9344  42.7648 0032058  65.0993 110.2771 13.73082639585171
UNKNOWN                 
1 87991U 77065    25210.38819620  .00001553  00000+0  28435-2 0  9993
2 87991  28.6243 112.5810 0907135 188.8093 169.5455 12.34764704506139
UNKNOWN                 
1 89003U          25209.49063426  .00000208  00000+0  80375-4 0  9998
2 89003  74.0467 266.4284 0015831 354.6852   5.4130 14.36071776611848
UNKNOWN                 
1 89005U          25210.81681413  .00002645  00000+0  61453-3 0  9992
2 89005  97.8503  50.1945 0195970  89.6480 272.7165 14.44561124514468
UNKNOWN                 
1 89029U          25206.45719249  .00004494  00000+0  44140-3 0  9990
2 89029  98.0611 102.3561 0025056  69.2913 291.0987 14.92467295630140
UNKNOWN                 
1 89067U          25211.48366594  .00156768  62345-5  77992-3 0  9991
2 89067  80.9385  33.4702 0137080 216.3091 142.8808 15.69173120566750
UNKNOWN                 
1 89101U          25209.06975839  .00000343  00000+0  11495-2 0  9995
2 89101 100.4458 150.2895 0147875  54.7982 306.6869 13.03971612536904
UNKNOWN                 
1 89132U          25209.98680356  .00000999  00000+0  13095-2 0  9992
2 89132  63.4321 209.0581 2941039 319.6427  21.9055  8.86087559312991
UNKNOWN                 
1 89146U          25210.53870901  .00003201  00000+0  61382-3 0  9999
2 89146  98.2364 139.5847 0097172 120.6788 240.4033 14.61454007608975
UNKNOWN                 
1 89161U          25211.30308687  .00032330  00000+0  14103-2 0  9992
2 89161  97.6725 223.0093 0056334 177.7471 182.4029 15.20632966527894
UNKNOWN                 
1 89172U 81053    25211.62769812  .00004479  00000+0  76887-3 0  9998
2 89172  82.0686 348.2227 0304911 335.4761  23.2174 14.42320365582390
UNKNOWN                 
1 89177U          25202.22658107  .00000092  00000+0  82180-4 0  9997
2 89177  82.9212  16.2713 0032313 182.4665 177.6336 13.73698861 42980
UNKNOWN                 
1 89183U          25209.22518870  .00000447  00000+0  43229-3 0  9997
2 89183  99.2175 123.5003 0130429 161.9950 198.5887 13.81369971587989
UNKNOWN                 
1 89184U          25208.05961919  .00014681  00000+0  22447-2 0  9997
2 89184  98.4019  67.2417 0010320 207.7641 152.3016 14.73827810471701
UNKNOWN                 
1 89213U          25207.13316057  .00000226  00000+0  17009-3 0  9994
2 89213  98.7996  87.5063 0228495 149.2963 212.1799 13.91385887433257
UNKNOWN                 
1 89251U          25211.21044096  .00003843  00000+0  24179-2 0  9994
2 89251  62.4704 179.9008 2851239  88.1170 303.9484  9.20026963360680
UNKNOWN                 
1 89261U          25209.72896793  .00000723  00000+0  22938-3 0  9993
2 89261  98.1467 210.0854 0012148 209.9837 150.0660 14.42743342514054
UNKNOWN                 
1 89304U          25209.30539163  .00010508  00000+0  21111-1 0  9992
2 89304  84.4312 139.7147 2800411 160.8778 340.9725  8.98059591426021
UNKNOWN                 
1 89314U          25208.28564684  .00000654  00000+0  19248-2 0  9995
2 89314  19.0380 246.9667 6966552 138.1836 303.9552  2.59727099 85243
UNKNOWN                 
1 89349U          25210.67375173 -.00000024  00000+0 -10975-3 0  9994
2 89349  90.2448   4.2796 0028585 262.2143  97.5731 12.96188441461128
UNKNOWN                 
1 89379U          25211.25334402  .00003783  00000+0  49818-2 0  9992
2 89379 100.4831 216.5746 0049321  96.3056 264.3703 13.61384932562338
UNKNOWN                 
1 89395U          25209.45124492  .00000140  00000+0  20483-2 0  9996
2 89395 102.3465 185.4849 0227055 359.3872 161.3575 12.01495328508257
